NORAD_CAT_ID,OBJECT_NAME,OBJECT_TYPE,EPOCH,MEAN_MOTION,ECCENTRICITY,INCLINATION,RA_OF_ASC_NODE,ARG_OF_PERICENTER,MEAN_ANOMALY,BSTAR,MEAN_MOTION_DOT,MEAN_MOTION_DDOT,TLE_LINE0,TLE_LINE1,TLE_LINE2,SEMIMAJOR_AXIS,PERIOD,APOGEE,PERIGEE,DECAYED
55928.0,STARLINK-5930,PAYLOAD,2023-04-29 22:00:00,15.45991127,0.0003564,70.0012,60.8591,268.5823,176.879,-0.021353,-0.0095738,0.0,0 STARLINK-5930,1 55928U 23037Q   23119.91667824 -.00957380  00000-0 -21353-1 0  9992,2 55928  70.0012  60.8591 0003564 268.5823 176.8790 15.45991127  7270,6806.604,93.144,430.895,426.044,0.0
55928.0,STARLINK-5930,PAYLOAD,2023-04-30 14:00:01,15.44636883,0.0003387,70.0011,59.0523,268.4108,284.7062,-0.020413,-0.00879938,0.0,0 STARLINK-5930,1 55928U 23037Q   23120.58334491 -.00879938  00000-0 -20413-1 0  9996,2 55928  70.0011  59.0523 0003387 268.4108 284.7062 15.44636883  1305,6810.582,93.226,434.754,430.14,0.0
55928.0,STARLINK-5930,PAYLOAD,2023-04-30 16:00:00,15.44464515,0.0003545,70.001,58.8269,265.4082,30.9441,-0.019897,-0.00843788,0.0,0 STARLINK-5930,1 55928U 23037Q   23120.66667824 -.00843788  00000-0 -19897-1 0  9992,2 55928  70.0010  58.8269 0003545 265.4082  30.9441 15.44464515  7390,6811.089,93.236,435.368,430.539,0.0
55928.0,STARLINK-5930,PAYLOAD,2023-05-01 06:00:00,15.43341177,0.0003491,70.0013,57.2493,272.7655,24.8562,-0.021488,-0.00885908,0.0,0 STARLINK-5930,1 55928U 23037Q   23121.25001157 -.00885908  00000-0 -21488-1 0  9998,2 55928  70.0013  57.2493 0003491 272.7655  24.8562 15.43341177  7485,6814.394,93.304,438.637,433.88,0.0
55928.0,STARLINK-5930,PAYLOAD,2023-05-01 14:00:01,15.42668729,0.0003403,70.0013,56.3492,267.9203,80.7927,-0.021355,-0.00862521,0.0,0 STARLINK-5930,1 55928U 23037Q   23121.58334491 -.00862521  00000-0 -21355-1 0  9993,2 55928  70.0013  56.3492 0003403 267.9203  80.7927 15.42668729  1307,6816.374,93.345,440.558,435.919,0.0
55928.0,STARLINK-5930,PAYLOAD,2023-05-01 22:00:00,15.42088527,0.0003512,70.0015,55.4503,269.5681,129.4223,-0.025013,-0.00979941,0.0,0 STARLINK-5930,1 55928U 23037Q   23121.91667824 -.00979941  00000-0 -25013-1 0  9999,2 55928  70.0015  55.4503 0003512 269.5681 129.4223 15.42088527  1303,6818.083,93.38,442.343,437.554,0.0
55928.0,STARLINK-5930,PAYLOAD,2023-05-02 00:00:02,15.41888519,0.0003386,70.0014,55.2256,271.6818,229.8413,-0.023763,-0.00929138,0.0,0 STARLINK-5930,1 55928U 23037Q   23122.00002315 -.00929138  00000-0 -23763-1 0  9991,2 55928  70.0014  55.2256 0003386 271.6818 229.8413 15.41888519  7591,6818.673,93.392,442.847,438.229,0.0
55928.0,STARLINK-5930,PAYLOAD,2023-05-02 14:00:01,15.40706474,0.0003332,70.0015,53.6544,271.64,225.6897,-0.022379,-0.00847623,0.0,0 STARLINK-5930,1 55928U 23037Q   23122.58335648 -.00847623  00000-0 -22379-1 0  9992,2 55928  70.0015  53.6544 0003332 271.6400 225.6897 15.40706474  1303,6822.16,93.464,446.298,441.752,0.0
55928.0,STARLINK-5930,PAYLOAD,2023-05-02 22:00:00,15.40122262,0.0003253,70.002,52.7579,270.0009,275.1987,-0.026358,-0.00968103,0.0,0 STARLINK-5930,1 55928U 23037Q   23122.91667824 -.00968103  00000-0 -26358-1 0  9991,2 55928  70.0020  52.7579 0003253 270.0009 275.1987 15.40122262  1304,6823.885,93.499,447.97,443.53,0.0
55928.0,STARLINK-5930,PAYLOAD,2023-05-03 06:00:02,15.39434685,0.0003281,70.0017,51.8622,273.8809,318.5578,-0.024725,-0.00893975,0.0,0 STARLINK-5930,1 55928U 23037Q   23123.25002315 -.00893975  00000-0 -24725-1 0  9997,2 55928  70.0017  51.8622 0003281 273.8809 318.5578 15.39434685  7799,6825.917,93.541,450.021,445.542,0.0
55928.0,STARLINK-5930,PAYLOAD,2023-05-03 14:00:01,15.38749639,0.0003292,70.0019,50.9674,268.0548,10.7224,-0.023907,-0.00848762,0.0,0 STARLINK-5930,1 55928U 23037Q   23123.58334491 -.00848762  00000-0 -23907-1 0  9991,2 55928  70.0019  50.9674 0003292 268.0548  10.7224 15.38749639  1303,6827.943,93.582,452.055,447.56,0.0
55928.0,STARLINK-5930,PAYLOAD,2023-05-03 22:00:00,15.38160028,0.0003364,70.0023,50.0735,267.9072,56.4597,-0.027791,-0.00957871,0.0,0 STARLINK-5930,1 55928U 23037Q   23123.91667824 -.00957871  00000-0 -27791-1 0  9994,2 55928  70.0023  50.0735 0003364 267.9072  56.4597 15.38160028  7896,6829.687,93.618,453.85,449.255,0.0
55928.0,STARLINK-5930,PAYLOAD,2023-05-04 14:00:01,15.36788055,0.0003282,70.0022,48.2883,268.3814,144.9311,-0.025164,-0.00838863,0.0,0 STARLINK-5930,1 55928U 23037Q   23124.58335648 -.00838863  00000-0 -25164-1 0  9995,2 55928  70.0022  48.2883 0003282 268.3814 144.9311 15.36788055  7998,6833.752,93.702,457.859,453.374,0.0
55928.0,STARLINK-5930,PAYLOAD,2023-05-04 22:00:01,15.36199294,0.0003254,70.0025,47.3971,269.4632,187.0933,-0.029503,-0.00954419,0.0,0 STARLINK-5930,1 55928U 23037Q   23124.91668981 -.00954419  00000-0 -29503-1 0  9998,2 55928  70.0025  47.3971 0003254 269.4632 187.0933 15.36199294  1306,6835.498,93.738,459.587,455.138,0.0
55928.0,STARLINK-5930,PAYLOAD,2023-05-05 00:00:00,15.3599679,0.0003175,70.0024,47.1745,269.8033,287.3957,-0.02762,-0.00892893,0.0,0 STARLINK-5930,1 55928U 23037Q   23125.00001157 -.00892893  00000-0 -27620-1 0  9990,2 55928  70.0024  47.1745 0003175 269.8033 287.3957 15.35996790  8057,6836.098,93.75,460.134,455.793,0.0
55928.0,STARLINK-5930,PAYLOAD,2023-05-05 22:00:00,15.34236273,0.0003114,70.0025,44.7291,267.4336,314.1435,-0.031083,-0.00944999,0.0,0 STARLINK-5930,1 55928U 23037Q   23125.91667824 -.00944999  00000-0 -31083-1 0  9992,2 55928  70.0025  44.7291 0003114 267.4336 314.1435 15.34236273  1303,6841.327,93.858,465.322,461.062,0.0
55928.0,STARLINK-5930,PAYLOAD,2023-05-06 02:00:01,15.33870792,0.0003156,70.0023,44.2852,273.7478,148.0004,-0.028784,-0.00871138,0.0,0 STARLINK-5930,1 55928U 23037Q   23126.08334491 -.00871138  00000-0 -28784-1 0  9990,2 55928  70.0023  44.2852 0003156 273.7478 148.0004 15.33870792  8225,6842.414,93.88,466.438,462.119,0.0
55928.0,STARLINK-5930,PAYLOAD,2023-05-06 16:00:00,15.32746197,0.0003265,70.0023,42.7333,267.5544,133.213,-0.030382,-0.00886094,0.0,0 STARLINK-5930,1 55928U 23037Q   23126.66667824 -.00886094  00000-0 -30382-1 0  9997,2 55928  70.0023  42.7333 0003265 267.5544 133.2130 15.32746197  1306,6845.76,93.949,469.86,465.39,0.0
55928.0,STARLINK-5930,PAYLOAD,2023-05-07 06:00:00,15.31620117,0.0003205,70.0019,41.184,275.1755,102.2233,-0.032789,-0.00920006,0.0,0 STARLINK-5930,1 55928U 23037Q   23127.25001157 -.00920006  00000-0 -32789-1 0  9999,2 55928  70.0019  41.1840 0003205 275.1755 102.2233 15.31620117  8400,6849.115,94.018,473.175,468.785,0.0
55928.0,STARLINK-5930,PAYLOAD,2023-05-07 14:00:01,15.30926952,0.0003288,70.002,40.3011,268.5613,145.8509,-0.030644,-0.00847317,0.0,0 STARLINK-5930,1 55928U 23037Q   23127.58334491 -.00847317  00000-0 -30644-1 0  9996,2 55928  70.0020  40.3011 0003288 268.5613 145.8509 15.30926952  1309,6851.182,94.061,475.3,470.795,0.0
55928.0,STARLINK-5930,PAYLOAD,2023-05-07 22:00:00,15.30316032,0.0003202,70.0024,39.4166,269.9909,180.6357,-0.034797,-0.0093596,0.0,0 STARLINK-5930,1 55928U 23037Q   23127.91667824 -.00935960  00000-0 -34797-1 0  9997,2 55928  70.0024  39.4166 0003202 269.9909 180.6357 15.30316032  1302,6853.006,94.098,477.065,472.676,0.0
55928.0,STARLINK-5930,PAYLOAD,2023-05-08 06:00:00,15.29662961,0.0003068,70.0019,38.5341,274.8948,211.1612,-0.034816,-0.00919154,0.0,0 STARLINK-5930,1 55928U 23037Q   23128.25001157 -.00919154  00000-0 -34816-1 0  9995,2 55928  70.0019  38.5341 0003068 274.8948 211.1612 15.29662961  8550,6854.956,94.138,478.924,474.718,0.0
55928.0,STARLINK-5930,PAYLOAD,2023-05-08 22:00:00,15.28353099,0.0003094,70.0023,36.7717,268.5511,286.0394,-0.03653,-0.00937285,0.0,0 STARLINK-5930,1 55928U 23037Q   23128.91667824 -.00937285  00000-0 -36530-1 0  9997,2 55928  70.0023  36.7717 0003094 268.5511 286.0394 15.28353099  1309,6858.872,94.219,482.859,478.615,0.0
55928.0,STARLINK-5930,PAYLOAD,2023-05-09 06:00:00,15.27710757,0.0003071,70.0017,35.8918,271.2139,316.4559,-0.03736,-0.00939719,0.0,0 STARLINK-5930,1 55928U 23037Q   23129.25001157 -.00939719  00000-0 -37360-1 0  9992,2 55928  70.0017  35.8918 0003071 271.2139 316.4559 15.27710757  8717,6860.795,94.259,484.767,480.553,0.0
55928.0,STARLINK-5930,PAYLOAD,2023-05-09 14:00:01,15.27019174,0.0003186,70.0018,35.0128,264.3986,355.5875,-0.034973,-0.00856534,0.0,0 STARLINK-5930,1 55928U 23037Q   23129.58334491 -.00856534  00000-0 -34973-1 0  9998,2 55928  70.0018  35.0128 0003186 264.3986 355.5875 15.27019174  1301,6862.866,94.301,486.917,482.544,0.0
55928.0,STARLINK-5930,PAYLOAD,2023-05-10 14:00:01,15.25064528,0.0003272,70.0016,32.381,264.9424,87.2715,-0.03725,-0.00859647,0.0,0 STARLINK-5930,1 55928U 23037Q   23130.58334491 -.00859647  00000-0 -37250-1 0  9999,2 55928  70.0016  32.3810 0003272 264.9424  87.2715 15.25064528  1309,6868.729,94.422,492.841,488.346,0.0
55928.0,STARLINK-5930,PAYLOAD,2023-05-10 22:00:00,15.24434291,0.0003284,70.0019,31.5054,270.0578,111.3347,-0.040674,-0.00927488,0.0,0 STARLINK-5930,1 55928U 23037Q   23130.91667824 -.00927488  00000-0 -40674-1 0  9998,2 55928  70.0019  31.5054 0003284 270.0578 111.3347 15.24434291  1301,6870.622,94.461,494.743,490.23,0.0
55928.0,STARLINK-5930,PAYLOAD,2023-05-11 06:00:00,15.23804544,0.0003257,70.0014,30.6307,275.4898,134.2864,-0.042687,-0.00953191,0.0,0 STARLINK-5930,1 55928U 23037Q   23131.25001157 -.00953191  00000-0 -42687-1 0  9993,2 55928  70.0014  30.6307 0003257 275.4898 134.2864 15.23804544  9016,6872.515,94.5,496.618,492.141,0.0
55928.0,STARLINK-5930,PAYLOAD,2023-05-11 14:00:01,15.23108947,0.0003197,70.0015,29.757,269.2048,168.196,-0.039622,-0.00862191,0.0,0 STARLINK-5930,1 55928U 23037Q   23131.58334491 -.00862191  00000-0 -39622-1 0  9993,2 55928  70.0015  29.7570 0003197 269.2048 168.1960 15.23108947  1300,6874.607,94.543,498.67,494.274,0.0
55928.0,STARLINK-5930,PAYLOAD,2023-05-11 22:00:00,15.22478301,0.0003171,70.0018,28.8841,271.9933,192.2404,-0.043224,-0.0092965,0.0,0 STARLINK-5930,1 55928U 23037Q   23131.91667824 -.00929650  00000-0 -43224-1 0  9996,2 55928  70.0018  28.8841 0003171 271.9933 192.2404 15.22478301  1303,6876.505,94.583,500.551,496.19,0.0
